{
    "links": {
        "self": "http://www.neowsapp.com/rest/v1/neo/3749028?api_key=iIulBulltgU6a56xZRHN4H3l9WmuAYTsLGpBGhQ2"
    },
    "id": "3749028",
    "neo_reference_id": "3749028",
    "name": "(2016 GD2)",
    "designation": "2016 GD2",
    "nasa_jpl_url": "http://ssd.jpl.nasa.gov/sbdb.cgi?sstr=3749028",
    "absolute_magnitude_h": 26.5,
    "estimated_diameter": {
        "kilometers": {
            "estimated_diameter_min": 0.0133215567,
            "estimated_diameter_max": 0.0297879063
        },
        "meters": {
            "estimated_diameter_min": 13.3215566698,
            "estimated_diameter_max": 29.7879062798
        },
        "miles": {
            "estimated_diameter_min": 0.008277629,
            "estimated_diameter_max": 0.0185093411
        },
        "feet": {
            "estimated_diameter_min": 43.7058959846,
            "estimated_diameter_max": 97.7293544391
        }
    },
    "is_potentially_hazardous_asteroid": false,
    "close_approach_data": [
        {
            "close_approach_date": "2016-03-27",
            "close_approach_date_full": "2016-Mar-27 01:30",
            "epoch_date_close_approach": 1459042200000,
            "relative_velocity": {
                "kilometers_per_second": "8.4250279554",
                "kilometers_per_hour": "30330.1006393131",
                "miles_per_hour": "18845.9450333554"
            },
            "miss_distance": {
                "astronomical": "0.0415351573",
                "lunar": "16.1571761897",
                "kilometers": "6213571.062194951",
                "miles": "3860934.0241582838"
            },
            "orbiting_body": "Earth"
        }
    ],
    "orbital_data": {
        "orbit_id": "5",
        "orbit_determination_date": "2019-07-19 05:26:02",
        "first_observation_date": "2016-03-30",
        "last_observation_date": "2016-04-04",
        "data_arc_in_days": 5,
        "observations_used": 32,
        "orbit_uncertainty": "8",
        "minimum_orbit_intersection": ".0277564",
        "jupiter_tisserand_invariant": "3.731",
        "epoch_osculation": "2457480.5",
        "eccentricity": ".4943648882847997",
        "semi_major_axis": "1.949136272503232",
        "inclination": "4.315669281849542",
        "ascending_node_longitude": "17.09929696803492",
        "orbital_period": "993.9435784759269",
        "perihelion_distance": ".9855517368953205",
        "perihelion_argument": "139.6223924008105",
        "aphelion_distance": "2.912720808111143",
        "perihelion_time": "2457450.875750671540",
        "mean_anomaly": "10.72971342558344",
        "mean_motion": ".3621935970973418",
        "equinox": "J2000",
        "orbit_class": {
            "orbit_class_type": "APO",
            "orbit_class_description": "Near-Earth asteroid orbits which cross the Earth’s orbit similar to that of 1862 Apollo",
            "orbit_class_range": "a (semi-major axis) > 1.0 AU; q (perihelion) < 1.017 AU"
        }
    },
    "is_sentry_object": false
}